C/2020 X2 (ATLAS),e,18.1912,105.4586,347.3506,16.38846,0.0148558,0.76639316,2.2751,04/18.0/2021,2000,g 10.6,4.0
# From MPEC 2021-BE3
C/2020 X4 (Leonard),e,80.4888,161.8972,139.5256,46.91376,0.0030673,0.88895506,0.4843,04/18.0/2021,2000,g  9.0,4.0
# From MPEC 2021-FB5
C/2020 Y2 (ATLAS),e,101.2861,26.5065,266.0989,1224,0.0000230,0.99744016,0.0000,06/17.6609/2022,2000,g  6.5,4.0
# From MPEC 2021-FB5
C/2020 Y3 (ATLAS),e,83.0984,191.4276,342.0443,151.4075,0.0005290,0.98679549,0.0000,12/03.4869/2020,2000,g 13.5,4.0
# From MPEC 2021-FB5
C/2021 A1 (Leonard),h,01/03.2922/2022,132.6862,255.8845,225.0894,1.000083,0.615142,2000,8.5,4.0
# From MPEC 2021-FB5
C/2021 A2 (NEOWISE),e,106.9781,125.2382,338.8471,257.0718,0.0002391,0.99450365,0.0000,01/22.6319/2021,2000,g 13.5,4.0
# From MPEC 2021-FB5
C/2021 A4 (NEOWISE),e,111.5708,307.0841,204.6615,42.98352,0.0034974,0.97335033,0.0000,03/20.0331/2021,2000,g 16.0,4.0
# From MPEC 2021-BE3
P/2021 A5 (PANSTARRS),e,18.1881,328.7678,61.0779,3.045856,0.1854130,0.13960211,29.2194,04/18.0/2021,2000,g 15.0,4.0
# From MPEC 2021-FB5
C/2021 A6 (PANSTARRS),e,75.6016,164.0807,351.6795,7938,0.0000014,0.99900110,0.0000,05/03.9271/2021,2000,g  7.0,4.0
# From MPEC 2021-FB5
C/2021 A7 (NEOWISE),e,78.1489,154.5191,356.0645,6196,0.0000020,0.99968241,0.0000,07/15.3281/2021,2000,g 10.0,4.0
# From MPEC 2021-FB5
C/2021 A9 (PANSTARRS),h,12/02.2577/2023,158.0231,314.8478,211.5092,1.002691,7.757550,2000,6.0,4.0
# From MPEC 2021-F20
C/2021 A10 (NEOWISE),e,151.5253,188.3481,82.2729,91.03737,0.0011347,0.98606638,0.0000,03/15.2738/2021,2000,g 19.0,4.0
# From MPEC 2021-FB5
C/2021 B2 (PANSTARRS),e,38.0939,120.5560,334.9713,336.9494,0.0001594,0.99254163,0.0000,05/04.2711/2021,2000,g 14.0,4.0
# From MPEC 2021-FB5
C/2021 B3 (NEOWISE),e,119.4893,67.2863,293.5596,34.95389,0.0047694,0.93819989,0.1817,04/18.0/2021,2000,g 13.5,4.0
# From MPEC 2021-FB5
C/2021 C1 (Rankin),h,12/07.7530/2020,143.0625,186.8915,336.4343,1.003956,3.483739,2000,11.5,4.0
# From MPEC 2021-F20
P/2021 C2 (PANSTARRS),e,21.9253,66.4742,79.1127,9.539062,0.0334538,0.48733242,1.6713,04/18.0/2021,2000,g 12.0,4.0
# From MPEC 2021-FB5
C/2021 C3 (Catalina),e,122.1617,181.9199,357.1500,63.31480,0.0019563,0.96404488,0.1263,04/18.0/2021,2000,g 14.0,4.0
# From MPEC 2021-FB5
C/2021 C4 (ATLAS),h,01/18.3548/2021,132.8654,194.2587,320.4045,1.002297,4.506643,2000,9.0,4.0
# From MPEC 2021-FB5
C/2021 C5 (PANSTARRS),h,02/10.8123/2023,50.7943,323.6903,270.9159,1.000055,3.240859,2000,9.0,4.0
# From MPEC 2021-F63
C/2021 C6 (Lemmon),h,11/13.3488/2021,164.6260,332.1546,203.5707,1.002177,3.271155,2000,12.0,4.0
# From MPEC 2021-FB5
C/2021 D1 (SWAN),e,31.4619,311.2733,72.2198,92.06529,0.0011157,0.99020567,0.0000,02/27.6066/2021,2000,g 13.0,4.0
# From MPEC 2021-F67
C/2021 D2 (ZTF),e,83.8460,305.6943,125.0876,6317,0.0000020,0.99953387,0.0000,02/04.1861/2022,2000,g  9.0,4.0
# From  98, 1083
1P/Halley,e,162.2674,58.6051,111.5414,17.87251,0.0130444,0.96616121,167.7540,04/18.0/2021,2000,g  4.0,6.0
# From MPEC 2021-F20
2P/Encke,e,11.7820,334.5260,186.5905,2.216761,0.2986248,0.84832165,88.3996,04/18.0/2021,2000,g 14.3,4.0
# From MPEC 2015-A10
4P/Faye,e,8.0119,192.9647,206.9614,3.826073,0.1316965,0.57687322,340.9826,04/18.0/2021,2000,g  8.0,6.0
# From MPEC 2021-FB5
6P/d'Arrest,e,19.5124,138.9358,178.1087,3.497250,0.1507002,0.61266592,336.9704,04/18.0/2021,2000,g  7.5,16.0
# From MPEC 2021-FB5
7P/Pons-Winnecke,e,22.3636,93.3753,172.5949,3.413882,0.1562541,0.63846438,353.8887,04/18.0/2021,2000,g 10.0,6.0
# From MPEC 2021-BE3
8P/Tuttle,e,54.9115,270.2036,207.4906,5.706569,0.0723005,0.82020540,350.4749,04/18.0/2021,2000,g  8.0,8.0
# From MPEC 2019-JE2
9P/Tempel,e,10.4700,68.7233,179.3311,3.147023,0.1765445,0.50931570,303.3443,04/18.0/2021,2000,g  9.0,4.0
# From MPEC 2021-FB5
10P/Tempel,e,12.0396,117.8096,195.5037,3.061573,0.1839870,0.53864292,4.5491,04/18.0/2021,2000,g  5.0,10.0
# From MPEC 2017-L52
11P/Tempel-Swift-LINEAR,e,14.4205,238.9138,167.9506,3.283325,0.1656659,0.57701909,23.6522,04/18.0/2021,2000,g  9.0,4.0
# From  27, 604
12P/Pons-Brooks,e,74.1128,255.7495,199.0112,17.12480,0.0139080,0.95435336,344.7173,04/18.0/2021,2000,g  5.0,6.0
# From  27, 604
13P/Olbers,e,44.6238,85.8909,64.4765,16.70459,0.0144361,0.92971883,343.1037,04/18.0/2021,2000,g  5.0,6.0
# From MPEC 2021-F20
14P/Wolf,e,27.9098,202.0598,159.0021,4.258796,0.1121434,0.35689319,138.2078,04/18.0/2021,2000,g  5.5,12.0
# From MPC xxxxx
15P/Finlay,e,6.7974,13.7160,347.8265,3.505854,0.1501458,0.71705691,347.0160,04/18.0/2021,2000,g 12.3,4.0
# From MPC 92276
16P/Brooks,e,3.0119,138.8702,245.1707,3.655478,0.1410223,0.48622950,359.9776,04/18.0/2021,2000,g  7.5,10.0
# From MPEC 2020-SI8
17P/Holmes,e,19.0321,326.6204,24.4684,3.635638,0.1421782,0.42769585,8.1290,04/18.0/2021,2000,g 10.0,6.0
# From MPC 92984
19P/Borrelly,e,29.3124,74.2856,351.8700,3.606893,0.1438812,0.63785744,318.3070,04/18.0/2021,2000,g  4.5,10.0
# From MPC111773
21P/Giacobini-Zinner,e,32.0300,195.3523,172.8537,3.495706,0.1508002,0.71088732,143.3176,04/18.0/2021,2000,g  9.0,6.0
# From MPEC 2021-FB5
22P/Kopff,e,4.7421,120.8379,162.9897,3.441724,0.1543618,0.54886508,308.4343,04/18.0/2021,2000,g  3.0,10.4
# From MPC 14747
23P/Brorsen-Metcalf,e,19.1306,312.4294,128.7977,16.95125,0.0141222,0.97125936,0.0000,08/06.8038/1989,2000,g 10.0,6.0
# From MPC110085
24P/Schaumasse,e,11.5616,78.7876,58.1180,4.052842,0.1207993,0.70870183,151.0474,04/18.0/2021,2000,g  6.5,14.0
# From MPC 94674
26P/Grigg-Skjellerup,e,22.4369,211.5406,2.1856,3.014176,0.1883437,0.64041879,175.0952,04/18.0/2021,2000,g 12.0,16.0
# From MPC 78188
27P/Crommelin,e,29.1841,250.5974,195.9573,9.186518,0.0353979,0.91816442,125.8967,04/18.0/2021,2000,g 12.0,8.0
# From MPEC 2021-F20
28P/Neujmin,e,14.3120,346.3322,347.4094,6.978253,0.0534668,0.77383145,1.9846,04/18.0/2021,2000,g  8.5,6.0
# From MPEC 2021-FB5
29P/Schwassmann-Wachmann,e,9.3668,312.3748,48.9508,6.037504,0.0664382,0.04453588,50.2352,04/18.0/2021,2000,g  4.0,4.0
# From MPC110085
30P/Reinmuth,e,8.4089,118.6882,9.9202,3.675121,0.1398932,0.53148026,190.1165,04/18.0/2021,2000,g  9.5,6.0
# From MPC108597
31P/Schwassmann-Wachmann,e,4.5473,114.1136,18.1695,4.239329,0.1129168,0.19220470,73.7375,04/18.0/2021,2000,g  5.0,8.0
# From MPC 92276
32P/Comas Sola,e,9.8896,56.7453,53.9819,4.498884,0.1032873,0.55961541,246.2517,04/18.0/2021,2000,g  6.5,8.0
# From MPEC 2013-O31
33P/Daniel,e,22.3057,66.3295,20.5664,4.084743,0.1193870,0.45179837,204.2383,04/18.0/2021,2000,g 10.0,12.0
# From  15, 452
35P/Herschel-Rigollet,e,65.044,356.588,28.997,28.5627,0.006457,0.9737603,0.000,12/29.3081/2091,2000,g  9.0,4.0
# From MPEC 2020-SI8
36P/Whipple,e,9.9517,181.8550,200.8305,4.132709,0.1173145,0.26880137,37.6699,04/18.0/2021,2000,g  8.5,6.0
# From MPEC 2018-HA5
37P/Forbes,e,8.9575,314.5599,330.1122,3.460040,0.1531378,0.53390168,165.3416,04/18.0/2021,2000,g 10.5,4.8
# From MPEC 2018-S50
38P/Stephan-Oterma,e,18.3594,77.9753,359.5160,11.24252,0.0261462,0.85894708,23.2456,04/18.0/2021,2000,g  3.5,12.0
# From MPEC 2020-W26
39P/Oterma,e,1.5599,299.2242,95.7033,7.392340,0.0490378,0.22404915,322.6084,04/18.0/2021,2000,g  7.0,6.0
# From MPC100283
40P/Vaisala,e,11.4692,133.7780,47.4372,4.951933,0.0894421,0.62968360,210.1617,04/18.0/2021,2000,g  5.5,12.0
# From MPC105240
41P/Tuttle-Giacobini-Kresak,e,9.2209,140.9887,62.2515,3.086843,0.1817324,0.66004259,266.6957,04/18.0/2021,2000,g 10.0,16.0
# From MPC 94283
42P/Neujmin,e,3.9906,150.1796,147.2086,4.872975,0.0916248,0.58539171,201.4177,04/18.0/2021,2000,g 13.0,6.0
# From MPC102956
43P/Wolf-Harrington,e,9.3479,244.2127,224.1228,4.312992,0.1100363,0.43647110,187.0654,04/18.0/2021,2000,g  8.0,6.0
# From MPEC 2020-HN5
44P/Reinmuth,e,5.8985,286.4796,58.1415,3.688782,0.1391168,0.42732875,308.4589,04/18.0/2021,2000,g  8.3,6.0
# From MPC103849
45P/Honda-Mrkos-Pajdusakova,e,4.3237,87.7061,327.9280,3.051353,0.1849121,0.81751416,291.1088,04/18.0/2021,2000,g 13.5,8.0
# From MPC114607
46P/Wirtanen,e,11.7433,82.1575,356.3474,3.091510,0.1813210,0.65823033,155.4865,04/18.0/2021,2000,g 14.0,6.0
# From MPEC 2021-FB5
47P/Ashbrook-Jackson,e,13.0383,356.9214,357.6238,4.124295,0.1176737,0.31826621,165.5355,04/18.0/2021,2000,g  1.0,11.2
# From MPEC 2015-M77
48P/Johnson,e,12.2071,110.1255,216.6469,3.500793,0.1504716,0.42741647,147.3507,04/18.0/2021,2000,g  9.0,4.0
# From MPEC 2020-K19
49P/Arend-Rigaux,e,19.0459,118.7972,332.9564,3.569931,0.1461216,0.59827245,147.3683,04/18.0/2021,2000,g 11.3,4.4
# From MPEC 2015-S97
50P/Arend,e,19.0998,355.1704,49.3158,4.088962,0.1192023,0.52887737,226.3067,04/18.0/2021,2000,g  9.5,6.0
# From NK 3013
51P-A/Harrington,e,5.4261,83.6643,269.2770,3.707421,0.1380690,0.54328693,286.5702,04/18.0/2021,2000,g 16.0,8.0
# From NK 3014
51P-A/Harrington,e,5.4254,83.6798,269.2379,3.708435,0.1380124,0.54336016,286.2993,04/18.0/2021,2000,g 10.0,8.0
# From NK 3014
51P-A/Harrington,e,5.4254,83.6798,269.2379,3.708417,0.1380134,0.54335705,286.3028,04/18.0/2021,2000,g 10.0,8.0
# From MPEC 2015-L08
51P-D/Harrington,e,5.4269,83.6698,269.2272,3.707508,0.1380641,0.54330114,286.5639,04/18.0/2021,2000,g 16.0,8.0
# From MPEC 2015-L08
51P-D/Harrington,e,5.4269,83.6688,269.2280,3.707496,0.1380648,0.54330170,286.5692,04/18.0/2021,2000,g 16.0,8.0
# From NK 3013
51P-D/Harrington,e,5.4261,83.6646,269.2767,3.707420,0.1380691,0.54328712,286.5703,04/18.0/2021,2000,g 16.0,8.0
# From NK 3013
51P-D/Harrington,e,5.4261,83.6646,269.2767,3.707420,0.1380691,0.54328725,286.5703,04/18.0/2021,2000,g 16.0,8.0
# From MPC 88330
52P/Harrington-Abell,e,10.2317,336.8388,139.5991,3.863249,0.1298001,0.53997074,337.9074,04/18.0/2021,2000,g 13.5,6.0
# From MPC100283
53P/Van Biesbroeck,e,6.6092,148.8160,134.4647,5.426816,0.0779626,0.55195087,141.3487,04/18.0/2021,2000,g  7.7,4.8
# From MPC 89011
54P/de Vico-Swift-NEAT,e,6.0636,358.8146,1.7745,3.791923,0.1334796,0.42588500,195.1842,04/18.0/2021,2000,g  9.0,4.0
# From MPC 31070
55P/Tempel-Tuttle,e,162.4192,235.4060,172.5112,10.35326,0.0295862,0.90627934,251.0641,04/18.0/2021,2000,g  9.0,4.0
# From MPC101100
